[{"OBJECT_NAME":"HAWK-10B","OBJECT_ID":"2024-149CF","EPOCH":"2026-03-09T22:24:07.674624","MEAN_MOTION":14.96175068,"ECCENTRICITY":0.00063882,"INCLINATION":97.6865,"RA_OF_ASC_NODE":146.0046,"ARG_OF_PERICENTER":71.247,"MEAN_ANOMALY":288.9444,"EPHEMERIS_TYPE":0,"CLASSIFICATION_TYPE":"U","NORAD_CAT_ID":60545,"ELEMENT_SET_NO":999,"REV_AT_EPOCH":8514,"BSTAR":0.00020768682,"MEAN_MOTION_DOT":2.283e-5,"MEAN_MOTION_DDOT":0},{"OBJECT_NAME":"STARLINK-34275","OBJECT_ID":"2025-129B","EPOCH":"2026-03-09T09:40:02.390880","MEAN_MOTION":14.9832652,"ECCENTRICITY":0.00036514,"INCLINATION":70.0009,"RA_OF_ASC_NODE":75.2092,"ARG_OF_PERICENTER":265.5021,"MEAN_ANOMALY":94.5721,"EPHEMERIS_TYPE":0,"CLASSIFICATION_TYPE":"U","NORAD_CAT_ID":64413,"ELEMENT_SET_NO":999,"REV_AT_EPOCH":4124,"BSTAR":-0.00018101844,"MEAN_MOTION_DOT":-2.252e-5,"MEAN_MOTION_DDOT":0}]
